STARLINK-36814          
1 67904U 26036A   26081.61454414  .00092713  00000+0  15665-2 0  9995
2 67904  43.0003 173.6060 0001813 246.0294 114.0377 15.50597032  5680
STARLINK-36729          
1 67905U 26036B   26082.91667824 -.01907363  00000+0 -51963-1 0  9990
2 67905  42.9992 165.4595 0001458 272.0855  20.3917 15.40130629  5936
STARLINK-36763          
1 67906U 26036C   26082.91667824 -.01885488  00000+0 -53902-1 0  9999
2 67906  42.9996 165.4208 0001518 262.2014  45.7873 15.38639180  5932
STARLINK-36742          
1 67907U 26036D   26082.91667824 -.01957046  00000+0 -50514-1 0  9996
2 67907  42.9993 165.4015 0001502 264.0624  51.5375 15.41829251  5932
STARLINK-36827          
1 67908U 26036E   26082.91667824 -.01899822  00000+0 -58343-1 0  9992
2 67908  42.9999 165.2168 0001695 270.8987 118.9181 15.36481326  5930
STARLINK-36822          
1 67909U 26036F   26080.98203987  .00091436  00000+0  15460-2 0  9990
2 67909  43.0011 176.5760 0001963 259.9323 100.1316 15.50583367  5590
STARLINK-36847          
1 67910U 26036G   26081.56519972  .00085529  00000+0  14483-2 0  9991
2 67910  43.0008 173.2112 0000925 249.3874 110.6887 15.50570646  5689
STARLINK-36736          
1 67911U 26036H   26082.91667824 -.02202754  00000+0 -72905-1 0  9999
2 67911  42.9998 165.0336 0001332 290.7791 172.0029 15.34115218  5934
STARLINK-36676          
1 67912U 26036J   26082.91667824 -.01890427  00000+0 -54636-1 0  9990
2 67912  42.9995 165.0340 0001555 285.6381 178.4593 15.38317424  5935
STARLINK-36690          
1 67913U 26036K   26082.91667824 -.01797342  00000+0 -50075-1 0  9996
2 67913  42.9999 164.9958 0001845 285.2847 194.1035 15.39254251  5933
STARLINK-36724          
1 67914U 26036L   26082.91667824 -.01973381  00000+0 -51786-1 0  9996
2 67914  42.9995 164.9047 0001306 280.9407 235.5075 15.41368937  5939
STARLINK-36723          
1 67915U 26036M   26082.91667824 -.01833164  00000+0 -54447-1 0  9998
2 67915  42.9994 164.9186 0001572 287.2207 223.3719 15.37380785  5936
