CCSDS_OMM_VERS = 2.0
CREATION_DATE  = 
ORIGINATOR     = 

OBJECT_NAME    = STARLINK-36814
OBJECT_ID      = 2026-036A
CENTER_NAME    = EARTH
REF_FRAME      = TEME
TIME_SYSTEM    = UTC
MEAN_ELEMENT_THEORY = SGP/SGP4

EPOCH          = 2026-03-22T14:44:56.613696
MEAN_MOTION    = 15.50597032
ECCENTRICITY   = .00018134
INCLINATION    = 43.0003
RA_OF_ASC_NODE = 173.6060
ARG_OF_PERICENTER = 246.0294
MEAN_ANOMALY   = 114.0377

EPHEMERIS_TYPE = 0
CLASSIFICATION_TYPE = U
NORAD_CAT_ID   = 67904
ELEMENT_SET_NO = 999
REV_AT_EPOCH   = 568
BSTAR          = .15665001E-2
MEAN_MOTION_DOT = .92713E-3
MEAN_MOTION_DDOT = 0

CCSDS_OMM_VERS = 2.0
CREATION_DATE  = 
ORIGINATOR     = 

OBJECT_NAME    = STARLINK-36729
OBJECT_ID      = 2026-036B
CENTER_NAME    = EARTH
REF_FRAME      = TEME
TIME_SYSTEM    = UTC
MEAN_ELEMENT_THEORY = SGP/SGP4

EPOCH          = 2026-03-23T22:00:00.999936
MEAN_MOTION    = 15.40130629
ECCENTRICITY   = .00014588
INCLINATION    = 42.9992
RA_OF_ASC_NODE = 165.4595
ARG_OF_PERICENTER = 272.0855
MEAN_ANOMALY   = 20.3917

EPHEMERIS_TYPE = 0
CLASSIFICATION_TYPE = U
NORAD_CAT_ID   = 67905
ELEMENT_SET_NO = 999
REV_AT_EPOCH   = 593
BSTAR          = -.51963477E-1
MEAN_MOTION_DOT = -.1907363E-1
MEAN_MOTION_DDOT = 0

CCSDS_OMM_VERS = 2.0
CREATION_DATE  = 
ORIGINATOR     = 

OBJECT_NAME    = STARLINK-36763
OBJECT_ID      = 2026-036C
CENTER_NAME    = EARTH
REF_FRAME      = TEME
TIME_SYSTEM    = UTC
MEAN_ELEMENT_THEORY = SGP/SGP4

EPOCH          = 2026-03-23T22:00:00.999936
MEAN_MOTION    = 15.38639180
ECCENTRICITY   = .00015182
INCLINATION    = 42.9996
RA_OF_ASC_NODE = 165.4208
ARG_OF_PERICENTER = 262.2014
MEAN_ANOMALY   = 45.7873

EPHEMERIS_TYPE = 0
CLASSIFICATION_TYPE = U
NORAD_CAT_ID   = 67906
ELEMENT_SET_NO = 999
REV_AT_EPOCH   = 593
BSTAR          = -.53902233E-1
MEAN_MOTION_DOT = -.1885488E-1
MEAN_MOTION_DDOT = 0

CCSDS_OMM_VERS = 2.0
CREATION_DATE  = 
ORIGINATOR     = 

OBJECT_NAME    = STARLINK-36742
OBJECT_ID      = 2026-036D
CENTER_NAME    = EARTH
REF_FRAME      = TEME
TIME_SYSTEM    = UTC
MEAN_ELEMENT_THEORY = SGP/SGP4

EPOCH          = 2026-03-23T22:00:00.999936
MEAN_MOTION    = 15.41829251
ECCENTRICITY   = .00015024
INCLINATION    = 42.9993
RA_OF_ASC_NODE = 165.4015
ARG_OF_PERICENTER = 264.0624
MEAN_ANOMALY   = 51.5375

EPHEMERIS_TYPE = 0
CLASSIFICATION_TYPE = U
NORAD_CAT_ID   = 67907
ELEMENT_SET_NO = 999
REV_AT_EPOCH   = 593
BSTAR          = -.50513875E-1
MEAN_MOTION_DOT = -.1957046E-1
MEAN_MOTION_DDOT = 0

CCSDS_OMM_VERS = 2.0
CREATION_DATE  = 
ORIGINATOR     = 

OBJECT_NAME    = STARLINK-36827
OBJECT_ID      = 2026-036E
CENTER_NAME    = EARTH
REF_FRAME      = TEME
TIME_SYSTEM    = UTC
MEAN_ELEMENT_THEORY = SGP/SGP4

EPOCH          = 2026-03-23T22:00:00.999936
MEAN_MOTION    = 15.36481326
ECCENTRICITY   = .00016953
INCLINATION    = 42.9999
RA_OF_ASC_NODE = 165.2168
ARG_OF_PERICENTER = 270.8987
MEAN_ANOMALY   = 118.9181

EPHEMERIS_TYPE = 0
CLASSIFICATION_TYPE = U
NORAD_CAT_ID   = 67908
ELEMENT_SET_NO = 999
REV_AT_EPOCH   = 593
BSTAR          = -.58342863E-1
MEAN_MOTION_DOT = -.1899822E-1
MEAN_MOTION_DDOT = 0

CCSDS_OMM_VERS = 2.0
CREATION_DATE  = 
ORIGINATOR     = 

OBJECT_NAME    = STARLINK-36822
OBJECT_ID      = 2026-036F
CENTER_NAME    = EARTH
REF_FRAME      = TEME
TIME_SYSTEM    = UTC
MEAN_ELEMENT_THEORY = SGP/SGP4

EPOCH          = 2026-03-21T23:34:08.244768
MEAN_MOTION    = 15.50583367
ECCENTRICITY   = .00019638
INCLINATION    = 43.0011
RA_OF_ASC_NODE = 176.5760
ARG_OF_PERICENTER = 259.9323
MEAN_ANOMALY   = 100.1316

EPHEMERIS_TYPE = 0
CLASSIFICATION_TYPE = U
NORAD_CAT_ID   = 67909
ELEMENT_SET_NO = 999
REV_AT_EPOCH   = 559
BSTAR          = .1545996E-2
MEAN_MOTION_DOT = .91436E-3
MEAN_MOTION_DDOT = 0

CCSDS_OMM_VERS = 2.0
CREATION_DATE  = 
ORIGINATOR     = 

OBJECT_NAME    = STARLINK-36847
OBJECT_ID      = 2026-036G
CENTER_NAME    = EARTH
REF_FRAME      = TEME
TIME_SYSTEM    = UTC
MEAN_ELEMENT_THEORY = SGP/SGP4

EPOCH          = 2026-03-22T13:33:53.255808
MEAN_MOTION    = 15.50570646
ECCENTRICITY   = .00009254
INCLINATION    = 43.0008
RA_OF_ASC_NODE = 173.2112
ARG_OF_PERICENTER = 249.3874
MEAN_ANOMALY   = 110.6887

EPHEMERIS_TYPE = 0
CLASSIFICATION_TYPE = U
NORAD_CAT_ID   = 67910
ELEMENT_SET_NO = 999
REV_AT_EPOCH   = 568
BSTAR          = .1448275E-2
MEAN_MOTION_DOT = .85529E-3
MEAN_MOTION_DDOT = 0

CCSDS_OMM_VERS = 2.0
CREATION_DATE  = 
ORIGINATOR     = 

OBJECT_NAME    = STARLINK-36736
OBJECT_ID      = 2026-036H
CENTER_NAME    = EARTH
REF_FRAME      = TEME
TIME_SYSTEM    = UTC
MEAN_ELEMENT_THEORY = SGP/SGP4

EPOCH          = 2026-03-23T22:00:00.999936
MEAN_MOTION    = 15.34115218
ECCENTRICITY   = .0001332
INCLINATION    = 42.9998
RA_OF_ASC_NODE = 165.0336
ARG_OF_PERICENTER = 290.7791
MEAN_ANOMALY   = 172.0029

EPHEMERIS_TYPE = 0
CLASSIFICATION_TYPE = U
NORAD_CAT_ID   = 67911
ELEMENT_SET_NO = 999
REV_AT_EPOCH   = 593
BSTAR          = -.72904649E-1
MEAN_MOTION_DOT = -.2202754E-1
MEAN_MOTION_DDOT = 0

CCSDS_OMM_VERS = 2.0
CREATION_DATE  = 
ORIGINATOR     = 

OBJECT_NAME    = STARLINK-36676
OBJECT_ID      = 2026-036J
CENTER_NAME    = EARTH
REF_FRAME      = TEME
TIME_SYSTEM    = UTC
MEAN_ELEMENT_THEORY = SGP/SGP4

EPOCH          = 2026-03-23T22:00:00.999936
MEAN_MOTION    = 15.38317424
ECCENTRICITY   = .00015552
INCLINATION    = 42.9995
RA_OF_ASC_NODE = 165.0340
ARG_OF_PERICENTER = 285.6381
MEAN_ANOMALY   = 178.4593

EPHEMERIS_TYPE = 0
CLASSIFICATION_TYPE = U
NORAD_CAT_ID   = 67912
ELEMENT_SET_NO = 999
REV_AT_EPOCH   = 593
BSTAR          = -.54636047E-1
MEAN_MOTION_DOT = -.1890427E-1
MEAN_MOTION_DDOT = 0

CCSDS_OMM_VERS = 2.0
CREATION_DATE  = 
ORIGINATOR     = 

OBJECT_NAME    = STARLINK-36690
OBJECT_ID      = 2026-036K
CENTER_NAME    = EARTH
REF_FRAME      = TEME
TIME_SYSTEM    = UTC
MEAN_ELEMENT_THEORY = SGP/SGP4

EPOCH          = 2026-03-23T22:00:00.999936
MEAN_MOTION    = 15.39254251
ECCENTRICITY   = .00018459
INCLINATION    = 42.9999
RA_OF_ASC_NODE = 164.9958
ARG_OF_PERICENTER = 285.2847
MEAN_ANOMALY   = 194.1035

EPHEMERIS_TYPE = 0
CLASSIFICATION_TYPE = U
NORAD_CAT_ID   = 67913
ELEMENT_SET_NO = 999
REV_AT_EPOCH   = 593
BSTAR          = -.50075165E-1
MEAN_MOTION_DOT = -.1797342E-1
MEAN_MOTION_DDOT = 0

CCSDS_OMM_VERS = 2.0
CREATION_DATE  = 
ORIGINATOR     = 

OBJECT_NAME    = STARLINK-36724
OBJECT_ID      = 2026-036L
CENTER_NAME    = EARTH
REF_FRAME      = TEME
TIME_SYSTEM    = UTC
MEAN_ELEMENT_THEORY = SGP/SGP4

EPOCH          = 2026-03-23T22:00:00.999936
MEAN_MOTION    = 15.41368937
ECCENTRICITY   = .00013068
INCLINATION    = 42.9995
RA_OF_ASC_NODE = 164.9047
ARG_OF_PERICENTER = 280.9407
MEAN_ANOMALY   = 235.5075

EPHEMERIS_TYPE = 0
CLASSIFICATION_TYPE = U
NORAD_CAT_ID   = 67914
ELEMENT_SET_NO = 999
REV_AT_EPOCH   = 593
BSTAR          = -.51786483E-1
MEAN_MOTION_DOT = -.1973381E-1
MEAN_MOTION_DDOT = 0

CCSDS_OMM_VERS = 2.0
CREATION_DATE  = 
ORIGINATOR     = 

OBJECT_NAME    = STARLINK-36723
OBJECT_ID      = 2026-036M
CENTER_NAME    = EARTH
REF_FRAME      = TEME
TIME_SYSTEM    = UTC
MEAN_ELEMENT_THEORY = SGP/SGP4

EPOCH          = 2026-03-23T22:00:00.999936
MEAN_MOTION    = 15.37380785
ECCENTRICITY   = .00015728
INCLINATION    = 42.9994
RA_OF_ASC_NODE = 164.9186
ARG_OF_PERICENTER = 287.2207
MEAN_ANOMALY   = 223.3719

EPHEMERIS_TYPE = 0
CLASSIFICATION_TYPE = U
NORAD_CAT_ID   = 67915
ELEMENT_SET_NO = 999
REV_AT_EPOCH   = 593
BSTAR          = -.54446662E-1
MEAN_MOTION_DOT = -.1833164E-1
MEAN_MOTION_DDOT = 0

